QIANFAN-41              
1 62242U 24232F   25325.50552678  .00000201  00000+0  29265-3 0  9993
2 62242  89.0043  43.3363 0012448 247.7129 112.2702 13.50977659 96388
QIANFAN-42              
1 62243U 24232G   25325.55839420  .00000638  00000+0  26895-3 0  9992
2 62243  89.0034  39.7733 0016500 147.7651 212.4554 14.24458837 98352
QIANFAN-43              
1 62244U 24232H   25325.57541275  .00000182  00000+0  26316-3 0  9995
2 62244  89.0047  43.3936 0013865 253.8819 106.0806 13.50978251 65008
QIANFAN-44              
1 62245U 24232J   25325.56313446  .00000178  00000+0  25754-3 0  9992
2 62245  89.0046  43.2060 0012129 250.0481 109.9364 13.50972987 96477
QIANFAN-45              
1 62246U 24232K   25325.60425126  .00000174  00000+0  25097-3 0  9993
2 62246  89.0049  43.3474 0012799 249.7781 110.1994 13.50976849 96409
QIANFAN-46              
1 62247U 24232L   25325.55490653  .00000182  00000+0  26420-3 0  9995
2 62247  89.0045  43.4224 0012743 256.1766 103.7968 13.50974965 96354
QIANFAN-47              
1 62248U 24232M   25325.55901390  .00000181  00000+0  26272-3 0  9995
2 62248  89.0042  43.3557 0013186 255.3499 104.6191 13.50977544 96383
QIANFAN-48              
1 62249U 24232N   25325.59602745  .00000191  00000+0  27814-3 0  9996
2 62249  89.0045  43.3530 0015399 258.6339 101.3082 13.50972710 96399
